NORAD_CAT_ID,OBJECT_NAME,OBJECT_TYPE,EPOCH,MEAN_MOTION,ECCENTRICITY,INCLINATION,RA_OF_ASC_NODE,ARG_OF_PERICENTER,MEAN_ANOMALY,BSTAR,MEAN_MOTION_DOT,MEAN_MOTION_DDOT,TLE_LINE0,TLE_LINE1,TLE_LINE2,SEMIMAJOR_AXIS,PERIOD,APOGEE,PERIGEE,DECAYED
53555.0,STARLINK-4504,PAYLOAD,2024-01-18 02:28:59,15.08842193,0.0001647,53.218,332.7936,115.3606,244.7557,4.4212e-05,4.16e-06,0.0,0 STARLINK-4504,1 53555U 22101AE  24018.10346563  .00000416  00000-0  44212-4 0  9990,2 53555  53.2180 332.7936 0001647 115.3606 244.7557 15.08842193 78311,6917.874,95.437,540.878,538.599,0.0
53555.0,STARLINK-4504,PAYLOAD,2024-01-18 21:33:37,15.08840702,0.000154,53.2182,329.2259,101.8282,258.2883,4.0612e-05,3.58e-06,0.0,0 STARLINK-4504,1 53555U 22101AE  24018.89834977  .00000358  00000-0  40612-4 0  9992,2 53555  53.2182 329.2259 0001540 101.8282 258.2883 15.08840702 79096,6917.878,95.438,540.809,538.678,0.0
53555.0,STARLINK-4504,PAYLOAD,2024-01-19 03:55:09,15.08851603,0.0001452,53.218,328.0399,97.3589,262.7569,0.00011645,1.566e-05,0.0,0 STARLINK-4504,1 53555U 22101AE  24019.16330101  .00001566  00000-0  11645-3 0  9998,2 53555  53.2180 328.0399 0001452  97.3589 262.7569 15.08851603 78471,6917.845,95.437,540.714,538.705,0.0
53555.0,STARLINK-4504,PAYLOAD,2024-01-19 05:30:32,15.08853815,0.0001545,53.2165,327.7399,105.6705,254.4457,0.00017188,2.45e-05,0.0,0 STARLINK-4504,1 53555U 22101AE  24019.22953823  .00002450  00000-0  17188-3 0  9998,2 53555  53.2165 327.7399 0001545 105.6705 254.4457 15.08853815 79142,6917.838,95.437,540.772,538.634,0.0
53555.0,STARLINK-4504,PAYLOAD,2024-01-20 03:45:56,15.08846917,0.0001486,53.2166,323.5797,88.3894,271.7268,0.00017271,2.462e-05,0.0,0 STARLINK-4504,1 53555U 22101AE  24020.15690313  .00002462  00000-0  17271-3 0  9990,2 53555  53.2166 323.5797 0001486  88.3894 271.7268 15.08846917 78628,6917.859,95.437,540.752,538.696,0.0
53555.0,STARLINK-4504,PAYLOAD,2024-01-20 19:39:48,15.0883866,0.0001926,53.2157,320.6123,69.1732,290.9466,5.9926e-05,6.66e-06,0.0,0 STARLINK-4504,1 53555U 22101AE  24020.81931035  .00000666  00000-0  59926-4 0  9990,2 53555  53.2157 320.6123 0001926  69.1732 290.9466 15.08838660 78726,6917.884,95.438,541.082,538.417,0.0
53555.0,STARLINK-4504,PAYLOAD,2024-01-21 02:01:20,15.088383,0.0001712,53.2172,319.4161,79.6828,280.4357,-3.0321e-05,-7.71e-06,0.0,0 STARLINK-4504,1 53555U 22101AE  24021.08427071 -.00000771  00000-0 -30321-4 0  9997,2 53555  53.2172 319.4161 0001712  79.6828 280.4357 15.08838300 79428,6917.886,95.438,540.935,538.566,0.0
53555.0,STARLINK-4504,PAYLOAD,2024-01-21 19:30:35,15.08844392,0.0001529,53.2169,316.1432,94.1399,265.9768,9.4066e-05,1.21e-05,0.0,0 STARLINK-4504,1 53555U 22101AE  24021.81290873  .00001210  00000-0  94066-4 0  9999,2 53555  53.2169 316.1432 0001529  94.1399 265.9768 15.08844392 79534,6917.867,95.437,540.79,538.674,0.0
53555.0,STARLINK-4504,PAYLOAD,2024-01-22 01:52:07,15.08850698,0.0001689,53.217,314.9562,78.7792,281.339,0.00021481,3.133e-05,0.0,0 STARLINK-4504,1 53555U 22101AE  24022.07786631  .00003133  00000-0  21481-3 0  9996,2 53555  53.2170 314.9562 0001689  78.7792 281.3390 15.08850698 78918,6917.848,95.437,540.881,538.544,0.0
53555.0,STARLINK-4504,PAYLOAD,2024-01-22 22:32:09,15.08838912,0.0001584,53.2189,311.0924,103.7746,256.3423,0.00010751,1.423e-05,0.0,0 STARLINK-4504,1 53555U 22101AE  24022.93899360  .00001423  00000-0  10751-3 0  9993,2 53555  53.2189 311.0924 0001584 103.7746 256.3423 15.08838912 79702,6917.884,95.438,540.845,538.653,0.0
53555.0,STARLINK-4504,PAYLOAD,2024-01-23 01:42:55,15.08839716,0.000163,53.2186,310.4962,100.3569,259.7607,0.00011405,1.528e-05,0.0,0 STARLINK-4504,1 53555U 22101AE  24023.07147300  .00001528  00000-0  11405-3 0  9992,2 53555  53.2186 310.4962 0001630 100.3569 259.7607 15.08839716 79065,6917.881,95.438,540.874,538.619,0.0
53555.0,STARLINK-4504,PAYLOAD,2024-01-23 22:22:55,15.08847979,0.0001669,53.2191,306.6286,116.5718,243.5445,0.00016008,2.261e-05,0.0,0 STARLINK-4504,1 53555U 22101AE  24023.93258787  .00002261  00000-0  16008-3 0  9998,2 53555  53.2191 306.6286 0001669 116.5718 243.5445 15.08847979 79852,6917.856,95.437,540.876,538.566,0.0
53555.0,STARLINK-4504,PAYLOAD,2024-01-24 01:33:41,15.08851865,0.0001624,53.2184,306.0295,111.6376,248.4789,0.00021416,3.123e-05,0.0,0 STARLINK-4504,1 53555U 22101AE  24024.06506589  .00003123  00000-0  21416-3 0  9996,2 53555  53.2184 306.0295 0001624 111.6376 248.4789 15.08851865 79219,6917.844,95.437,540.833,538.586,0.0
53555.0,STARLINK-4504,PAYLOAD,2024-01-24 22:13:43,15.08840859,0.0001367,53.2181,302.1703,96.8147,263.3001,9.6844e-05,1.254e-05,0.0,0 STARLINK-4504,1 53555U 22101AE  24024.92619274  .00001254  00000-0  96844-4 0  9998,2 53555  53.2181 302.1703 0001367  96.8147 263.3001 15.08840859 80004,6917.878,95.438,540.688,538.797,0.0
53555.0,STARLINK-4504,PAYLOAD,2024-01-25 01:24:29,15.08839216,0.0001468,53.2184,301.5747,102.9865,257.1291,6.9767e-05,8.23e-06,0.0,0 STARLINK-4504,1 53555U 22101AE  24025.05867349  .00000823  00000-0  69767-4 0  9996,2 53555  53.2184 301.5747 0001468 102.9865 257.1291 15.08839216 79360,6917.883,95.438,540.763,538.732,0.0
53555.0,STARLINK-4504,PAYLOAD,2024-01-25 22:04:30,15.08830243,0.000136,53.2172,297.7078,94.2199,265.8949,-8.1144e-05,-1.579e-05,0.0,0 STARLINK-4504,1 53555U 22101AE  24025.91980166 -.00001579  00000-0 -81144-4 0  9998,2 53555  53.2172 297.7078 0001360  94.2199 265.8949 15.08830243 80150,6917.91,95.438,540.716,538.834,0.0
53555.0,STARLINK-4504,PAYLOAD,2024-01-26 01:15:16,15.08839258,0.0001401,53.2169,297.1123,100.55,259.565,1.1552e-05,-1.04e-06,0.0,0 STARLINK-4504,1 53555U 22101AE  24026.05227856 -.00000104  00000-0  11552-4 0  9992,2 53555  53.2169 297.1123 0001401 100.5500 259.5650 15.08839258 79516,6917.883,95.438,540.717,538.778,0.0
53555.0,STARLINK-4504,PAYLOAD,2024-01-27 01:06:03,15.08851862,0.000147,53.2163,292.6528,93.9703,266.1457,0.00049422,7.589e-05,0.0,0 STARLINK-4504,1 53555U 22101AE  24027.04587773  .00007589  00000-0  49422-3 0  9998,2 53555  53.2163 292.6528 0001470  93.9703 266.1457 15.08851862 79665,6917.844,95.437,540.726,538.692,0.0
53555.0,STARLINK-4504,PAYLOAD,2024-01-27 21:46:04,15.08845998,0.0002035,53.2167,288.7904,59.9789,300.1405,0.00015253,2.141e-05,0.0,0 STARLINK-4504,1 53555U 22101AE  24027.90700005  .00002141  00000-0  15253-3 0  9992,2 53555  53.2167 288.7904 0002035  59.9789 300.1405 15.08845998 80451,6917.862,95.437,541.135,538.319,0.0
53555.0,STARLINK-4504,PAYLOAD,2024-01-27 23:21:27,15.08844169,0.000182,53.2171,288.4927,65.9016,294.2167,0.00014959,2.094e-05,0.0,0 STARLINK-4504,1 53555U 22101AE  24027.97324000  .00002094  00000-0  14959-3 0  9995,2 53555  53.2171 288.4927 0001820  65.9016 294.2167 15.08844169 79803,6917.868,95.437,540.992,538.474,0.0
53555.0,STARLINK-4504,PAYLOAD,2024-01-28 21:36:51,15.08842218,0.0001939,53.2166,284.3291,66.0357,294.0838,3.6388e-05,2.91e-06,0.0,0 STARLINK-4504,1 53555U 22101AE  24028.90059994  .00000291  00000-0  36388-4 0  9994,2 53555  53.2166 284.3291 0001939  66.0357 294.0838 15.08842218 80603,6917.874,95.437,541.08,538.397,0.0
53555.0,STARLINK-4504,PAYLOAD,2024-01-28 23:12:14,15.08843273,0.0001879,53.217,284.0315,67.4753,292.6438,2.0313e-05,3.5e-07,0.0,0 STARLINK-4504,1 53555U 22101AE  24028.96683998  .00000035  00000-0  20313-4 0  9994,2 53555  53.2170 284.0315 0001879  67.4753 292.6438 15.08843273 79958,6917.87,95.437,541.035,538.436,0.0
53555.0,STARLINK-4504,PAYLOAD,2024-01-30 19:43:02,15.0884601,0.0001519,53.2156,275.7038,84.3169,275.7996,0.00012505,1.703e-05,0.0,0 STARLINK-4504,1 53555U 22101AE  24030.82155514  .00001703  00000-0  12505-3 0  9996,2 53555  53.2156 275.7038 0001519  84.3169 275.7996 15.08846010 80237,6917.862,95.437,540.778,538.676,0.0
53555.0,STARLINK-4504,PAYLOAD,2024-01-30 22:53:48,15.08843641,0.0001455,53.2168,275.1086,104.7828,255.3326,8.7349e-05,1.103e-05,0.0,0 STARLINK-4504,1 53555U 22101AE  24030.95403390  .00001103  00000-0  87349-4 0  9991,2 53555  53.2168 275.1086 0001455 104.7828 255.3326 15.08843641 80918,6917.869,95.437,540.741,538.728,0.0
53555.0,STARLINK-4504,PAYLOAD,2024-01-31 16:23:03,15.08837753,0.000151,53.2166,271.8374,87.6379,272.4786,-9.7906e-06,-4.44e-06,0.0,0 STARLINK-4504,1 53555U 22101AE  24031.68267959 -.00000444  00000-0 -97906-5 0  9991,2 53555  53.2166 271.8374 0001510  87.6379 272.4786 15.08837753 80367,6917.887,95.438,540.797,538.708,0.0
53555.0,STARLINK-4504,PAYLOAD,2024-02-01 16:13:50,15.0883461,0.0001731,53.2176,267.3781,108.2123,251.9058,6.8335e-05,8e-06,0.0,0 STARLINK-4504,1 53555U 22101AE  24032.67628124  .00000800  00000-0  68335-4 0  9993,2 53555  53.2176 267.3781 0001731 108.2123 251.9058 15.08834610 81175,6917.897,95.438,540.959,538.564,0.0
53555.0,STARLINK-4504,PAYLOAD,2024-02-02 19:15:23,15.08841197,0.000157,53.2168,262.3225,104.6856,255.431,4.4351e-05,4.18e-06,0.0,0 STARLINK-4504,1 53555U 22101AE  24033.80235903  .00000418  00000-0  44351-4 0  9995,2 53555  53.2168 262.3225 0001570 104.6856 255.4310 15.08841197 80681,6917.877,95.437,540.828,538.656,0.0
53555.0,STARLINK-4504,PAYLOAD,2024-02-02 22:26:10,15.08838367,0.0001359,53.2165,261.7285,87.5751,272.5397,9.6542e-05,1.249e-05,0.0,0 STARLINK-4504,1 53555U 22101AE  24033.93484165  .00001249  00000-0  96542-4 0  9997,2 53555  53.2165 261.7285 0001359  87.5751 272.5397 15.08838367 81361,6917.885,95.438,540.691,538.81,0.0
53555.0,STARLINK-4504,PAYLOAD,2024-02-03 00:01:33,15.08839528,0.0001389,53.2166,261.4304,98.662,261.453,0.00010504,1.384e-05,0.0,0 STARLINK-4504,1 53555U 22101AE  24034.00108030  .00001384  00000-0  10504-3 0  9993,2 53555  53.2166 261.4304 0001389  98.6620 261.4530 15.08839528 81379,6917.882,95.438,540.708,538.786,0.0
53555.0,STARLINK-4504,PAYLOAD,2024-02-03 19:06:11,15.08835552,0.0001613,53.2177,257.8643,97.8876,262.2299,2.6264e-05,1.3e-06,0.0,0 STARLINK-4504,1 53555U 22101AE  24034.79596837  .00000130  00000-0  26264-4 0  9994,2 53555  53.2177 257.8643 0001613  97.8876 262.2299 15.08835552 80834,6917.894,95.438,540.875,538.643,0.0
